0 ASTRA 1A
1 19688U 88109B   13281.56551323 -.00000175  00000-0  10000-3 0  2567
2 19688 010.9987 045.7104 0014890 019.1115 340.9499 00.98338728 70530
0 ASTRA 1A
1 19688U 88109B   13282.58234872  .00000000  00000-0  10000-3 0  2574
2 19688 011.0003 045.6976 0015096 019.7667 340.3031 00.98335900 70540
0 ASTRA 1A
1 19688U 88109B   13283.59920728 -.00000219  00000-0  10000-3 0  2571
2 19688 011.0022 045.6871 0014850 018.9630 341.0989 00.98339193 70552
0 ASTRA 1A
1 19688U 88109B   13285.63290015 -.00000238  00000-0  10000-3 0  2589
2 19688 011.0057 045.6641 0014804 018.8472 341.2157 00.98339227 70576
0 ASTRA 1A
1 19688U 88109B   13288.68339675 -.00000208  00000-0  10000-3 0  2591
2 19688 011.0109 045.6294 0014782 018.9412 341.1058 00.98338421 70606
0 ASTRA 1A
1 19688U 88109B   13290.71704696  .00000000  00000-0  10000-3 0  2608
2 19688 011.0143 045.6052 0014917 019.9902 340.0482 00.98334291 70623
0 ASTRA 1A
1 19688U 88109B   13290.71705753 -.00000156  00000-0  10000-3 0  2617
2 19688 011.0144 045.6062 0014762 019.0843 340.9438 00.98337476 70626
0 ASTRA 1A
1 19688U 88109B   13292.75075505 -.00000094  00000-0  10000-3 0  2620
2 19688 011.0180 045.5830 0014577 019.0020 341.0116 00.98336478 70647
0 ASTRA 1A
1 19688U 88109B   13294.78450087 -.00000037  00000-0  10000-3 0  2635
2 19688 011.0219 045.5597 0014128 017.5699 342.4363 00.98335703 70668
